GSAT-17                 
1 42815U 17040B   25068.84673813 -.00000276  00000+0  00000+0 0  9997
2 42815   0.0266 253.8330 0004566  32.3287 279.9070  1.00271959 28138
GSAT0215 (GALILEO 19)   
1 43055U 17079A   25067.85585931  .00000028  00000+0  00000+0 0  9993
2 43055  55.2338 234.3084 0000571  37.2177 322.7497  1.70474370 45050
GSAT0216 (GALILEO 20)   
1 43056U 17079B   25066.97419103  .00000035  00000+0  00000+0 0  9991
2 43056  55.2344 234.3328 0001475 318.3565  41.5985  1.70474499 45057
GSAT0217 (GALILEO 21)   
1 43057U 17079C   25062.50210937  .00000048  00000+0  00000+0 0  9995
2 43057  55.2333 234.4543 0001934 358.5382   1.4211  1.70474342 44962
GSAT0218 (GALILEO 22)   
1 43058U 17079D   25068.58797366  .00000021  00000+0  00000+0 0  9997
2 43058  55.2313 234.2839 0001735 303.6859  56.2576  1.70474420 45090
GOES 17                 
1 43226U 18022A   25068.87888385 -.00000110  00000+0  00000+0 0  9997
2 43226   0.0503 314.8677 0001195 119.4369 305.4606  1.00271900 25766
GSAT0221 (GALILEO 25)   
1 43564U 18060A   25062.03718543 -.00000090  00000+0  00000+0 0  9991
2 43564  57.2862 354.4951 0005577 303.4422  56.5121  1.70475213 41147
GSAT0222 (GALILEO 26)   
1 43565U 18060B   25065.18902751 -.00000103  00000+0  00000+0 0  9992
2 43565  57.2891 354.4126 0003955 284.9193  75.0424  1.70474985 41237
GSAT0219 (GALILEO 23)   
1 43566U 18060C   25060.13123374 -.00000084  00000+0  00000+0 0  9997
2 43566  57.2893 354.5507 0005051 310.5119  49.4489  1.70475233 41128
GSAT0220 (GALILEO 24)   
1 43567U 18060D   25062.11176882 -.00000090  00000+0  00000+0 0  9997
2 43567  57.2888 354.4975 0005572 300.6899  59.2630  1.70475060 41141
BEIDOU-3 M13            
1 43622U 18072A   25067.99622523  .00000006  00000+0  00000+0 0  9997
2 43622  56.2155  78.0588 0008937 301.8590  58.0946  1.86231149 43994
BEIDOU-3 M14            
1 43623U 18072B   25068.39866012  .00000008  00000+0  00000+0 0  9998
2 43623  56.2177  78.0389 0006451 321.5807  38.4145  1.86231144 43995
GPS BIII-1              
1 43873U 18109A   25068.34141764  .00000004  00000+0  00000+0 0  9997
2 43873  55.4135 110.5443 0033060 197.0748 164.8855  2.00565857 45752
METEOR-M2 2             
1 44387U 19038A   25068.88528702  .00000280  00000+0  14150-3 0  9991
2 44387  98.8655  45.7097 0000264 334.2104  25.9061 14.24156328295207
GPS BIII-2              
1 44506U 19056A   25065.22116498 -.00000102  00000+0  00000+0 0  9993
2 44506  55.8075 349.7134 0049010 194.2197 337.1341  2.00560350 40680
BEIDOU-3 M24            
1 44542U 19061A   25068.77623528 -.00000033  00000+0  00000+0 0  9992
2 44542  54.4189 198.3909 0008014  13.4837 346.4909  1.86228990 37145
BEIDOU-3 M23            
1 44543U 19061B   25068.33618009 -.00000027  00000+0  00000+0 0  9996
2 44543  54.4175 198.3742 0004651   7.2242 330.3863  1.86229178 37139
