[{"OBJECT_NAME":"GSAT-17","OBJECT_ID":"2017-040B","EPOCH":"2025-03-09T20:19:18.174432","MEAN_MOTION":1.00271959,"ECCENTRICITY":0.0004566,"INCLINATION":0.0266,"RA_OF_ASC_NODE":253.833,"ARG_OF_PERICENTER":32.3287,"MEAN_ANOMALY":279.907,"EPHEMERIS_TYPE":0,"CLASSIFICATION_TYPE":"U","NORAD_CAT_ID":42815,"ELEMENT_SET_NO":999,"REV_AT_EPOCH":2813,"BSTAR":0,"MEAN_MOTION_DOT":-2.76e-6,"MEAN_MOTION_DDOT":0},{"OBJECT_NAME":"GSAT0215 (GALILEO 19)","OBJECT_ID":"2017-079A","EPOCH":"2025-03-08T20:32:26.244384","MEAN_MOTION":1.7047437,"ECCENTRICITY":5.71e-5,"INCLINATION":55.2338,"RA_OF_ASC_NODE":234.3084,"ARG_OF_PERICENTER":37.2177,"MEAN_ANOMALY":322.7497,"EPHEMERIS_TYPE":0,"CLASSIFICATION_TYPE":"U","NORAD_CAT_ID":43055,"ELEMENT_SET_NO":999,"REV_AT_EPOCH":4505,"BSTAR":0,"MEAN_MOTION_DOT":2.8e-7,"MEAN_MOTION_DDOT":0},{"OBJECT_NAME":"GSAT0216 (GALILEO 20)","OBJECT_ID":"2017-079B","EPOCH":"2025-03-07T23:22:50.104992","MEAN_MOTION":1.70474499,"ECCENTRICITY":0.0001475,"INCLINATION":55.2344,"RA_OF_ASC_NODE":234.3328,"ARG_OF_PERICENTER":318.3565,"MEAN_ANOMALY":41.5985,"EPHEMERIS_TYPE":0,"CLASSIFICATION_TYPE":"U","NORAD_CAT_ID":43056,"ELEMENT_SET_NO":999,"REV_AT_EPOCH":4505,"BSTAR":0,"MEAN_MOTION_DOT":3.5e-7,"MEAN_MOTION_DDOT":0},{"OBJECT_NAME":"GSAT0217 (GALILEO 21)","OBJECT_ID":"2017-079C","EPOCH":"2025-03-03T12:03:02.249568","MEAN_MOTION":1.70474342,"ECCENTRICITY":0.0001934,"INCLINATION":55.2333,"RA_OF_ASC_NODE":234.4543,"ARG_OF_PERICENTER":358.5382,"MEAN_ANOMALY":1.4211,"EPHEMERIS_TYPE":0,"CLASSIFICATION_TYPE":"U","NORAD_CAT_ID":43057,"ELEMENT_SET_NO":999,"REV_AT_EPOCH":4496,"BSTAR":0,"MEAN_MOTION_DOT":4.8e-7,"MEAN_MOTION_DDOT":0},{"OBJECT_NAME":"GSAT0218 (GALILEO 22)","OBJECT_ID":"2017-079D","EPOCH":"2025-03-09T14:06:40.924224","MEAN_MOTION":1.7047442,"ECCENTRICITY":0.0001735,"INCLINATION":55.2313,"RA_OF_ASC_NODE":234.2839,"ARG_OF_PERICENTER":303.6859,"MEAN_ANOMALY":56.2576,"EPHEMERIS_TYPE":0,"CLASSIFICATION_TYPE":"U","NORAD_CAT_ID":43058,"ELEMENT_SET_NO":999,"REV_AT_EPOCH":4509,"BSTAR":0,"MEAN_MOTION_DOT":2.1e-7,"MEAN_MOTION_DDOT":0},{"OBJECT_NAME":"GOES 17","OBJECT_ID":"2018-022A","EPOCH":"2025-03-09T21:05:35.564640","MEAN_MOTION":1.002719,"ECCENTRICITY":0.0001195,"INCLINATION":0.0503,"RA_OF_ASC_NODE":314.8677,"ARG_OF_PERICENTER":119.4369,"MEAN_ANOMALY":305.4606,"EPHEMERIS_TYPE":0,"CLASSIFICATION_TYPE":"U","NORAD_CAT_ID":43226,"ELEMENT_SET_NO":999,"REV_AT_EPOCH":2576,"BSTAR":0,"MEAN_MOTION_DOT":-1.1e-6,"MEAN_MOTION_DDOT":0},{"OBJECT_NAME":"GSAT0221 (GALILEO 25)","OBJECT_ID":"2018-060A","EPOCH":"2025-03-03T00:53:32.821152","MEAN_MOTION":1.70475213,"ECCENTRICITY":0.0005577,"INCLINATION":57.2862,"RA_OF_ASC_NODE":354.4951,"ARG_OF_PERICENTER":303.4422,"MEAN_ANOMALY":56.5121,"EPHEMERIS_TYPE":0,"CLASSIFICATION_TYPE":"U","NORAD_CAT_ID":43564,"ELEMENT_SET_NO":999,"REV_AT_EPOCH":4114,"BSTAR":0,"MEAN_MOTION_DOT":-9.0e-7,"MEAN_MOTION_DDOT":0},{"OBJECT_NAME":"GSAT0222 (GALILEO 26)","OBJECT_ID":"2018-060B","EPOCH":"2025-03-06T04:32:11.976864","MEAN_MOTION":1.70474985,"ECCENTRICITY":0.0003955,"INCLINATION":57.2891,"RA_OF_ASC_NODE":354.4126,"ARG_OF_PERICENTER":284.9193,"MEAN_ANOMALY":75.0424,"EPHEMERIS_TYPE":0,"CLASSIFICATION_TYPE":"U","NORAD_CAT_ID":43565,"ELEMENT_SET_NO":999,"REV_AT_EPOCH":4123,"BSTAR":0,"MEAN_MOTION_DOT":-1.03e-6,"MEAN_MOTION_DDOT":0},{"OBJECT_NAME":"GSAT0219 (GALILEO 23)","OBJECT_ID":"2018-060C","EPOCH":"2025-03-01T03:08:58.595136","MEAN_MOTION":1.70475233,"ECCENTRICITY":0.0005051,"INCLINATION":57.2893,"RA_OF_ASC_NODE":354.5507,"ARG_OF_PERICENTER":310.5119,"MEAN_ANOMALY":49.4489,"EPHEMERIS_TYPE":0,"CLASSIFICATION_TYPE":"U","NORAD_CAT_ID":43566,"ELEMENT_SET_NO":999,"REV_AT_EPOCH":4112,"BSTAR":0,"MEAN_MOTION_DOT":-8.4e-7,"MEAN_MOTION_DDOT":0},{"OBJECT_NAME":"GSAT0220 (GALILEO 24)","OBJECT_ID":"2018-060D","EPOCH":"2025-03-03T02:40:56.826048","MEAN_MOTION":1.7047506,"ECCENTRICITY":0.0005572,"INCLINATION":57.2888,"RA_OF_ASC_NODE":354.4975,"ARG_OF_PERICENTER":300.6899,"MEAN_ANOMALY":59.263,"EPHEMERIS_TYPE":0,"CLASSIFICATION_TYPE":"U","NORAD_CAT_ID":43567,"ELEMENT_SET_NO":999,"REV_AT_EPOCH":4114,"BSTAR":0,"MEAN_MOTION_DOT":-9.0e-7,"MEAN_MOTION_DDOT":0},{"OBJECT_NAME":"BEIDOU-3 M13","OBJECT_ID":"2018-072A","EPOCH":"2025-03-08T23:54:33.859872","MEAN_MOTION":1.86231149,"ECCENTRICITY":0.0008937,"INCLINATION":56.2155,"RA_OF_ASC_NODE":78.0588,"ARG_OF_PERICENTER":301.859,"MEAN_ANOMALY":58.0946,"EPHEMERIS_TYPE":0,"CLASSIFICATION_TYPE":"U","NORAD_CAT_ID":43622,"ELEMENT_SET_NO":999,"REV_AT_EPOCH":4399,"BSTAR":0,"MEAN_MOTION_DOT":6.0e-8,"MEAN_MOTION_DDOT":0},{"OBJECT_NAME":"BEIDOU-3 M14","OBJECT_ID":"2018-072B","EPOCH":"2025-03-09T09:34:04.234368","MEAN_MOTION":1.86231144,"ECCENTRICITY":0.0006451,"INCLINATION":56.2177,"RA_OF_ASC_NODE":78.0389,"ARG_OF_PERICENTER":321.5807,"MEAN_ANOMALY":38.4145,"EPHEMERIS_TYPE":0,"CLASSIFICATION_TYPE":"U","NORAD_CAT_ID":43623,"ELEMENT_SET_NO":999,"REV_AT_EPOCH":4399,"BSTAR":0,"MEAN_MOTION_DOT":8.0e-8,"MEAN_MOTION_DDOT":0},{"OBJECT_NAME":"GPS BIII-1","OBJECT_ID":"2018-109A","EPOCH":"2025-03-09T08:11:38.484096","MEAN_MOTION":2.00565857,"ECCENTRICITY":0.003306,"INCLINATION":55.4135,"RA_OF_ASC_NODE":110.5443,"ARG_OF_PERICENTER":197.0748,"MEAN_ANOMALY":164.8855,"EPHEMERIS_TYPE":0,"CLASSIFICATION_TYPE":"U","NORAD_CAT_ID":43873,"ELEMENT_SET_NO":999,"REV_AT_EPOCH":4575,"BSTAR":0,"MEAN_MOTION_DOT":4.0e-8,"MEAN_MOTION_DDOT":0},{"OBJECT_NAME":"METEOR-M2 2","OBJECT_ID":"2019-038A","EPOCH":"2025-03-09T21:14:48.798528","MEAN_MOTION":14.24156328,"ECCENTRICITY":2.64e-5,"INCLINATION":98.8655,"RA_OF_ASC_NODE":45.7097,"ARG_OF_PERICENTER":334.2104,"MEAN_ANOMALY":25.9061,"EPHEMERIS_TYPE":0,"CLASSIFICATION_TYPE":"U","NORAD_CAT_ID":44387,"ELEMENT_SET_NO":999,"REV_AT_EPOCH":29520,"BSTAR":0.0001415,"MEAN_MOTION_DOT":2.8e-6,"MEAN_MOTION_DDOT":0},{"OBJECT_NAME":"GPS BIII-2","OBJECT_ID":"2019-056A","EPOCH":"2025-03-06T05:18:28.654272","MEAN_MOTION":2.0056035,"ECCENTRICITY":0.004901,"INCLINATION":55.8075,"RA_OF_ASC_NODE":349.7134,"ARG_OF_PERICENTER":194.2197,"MEAN_ANOMALY":337.1341,"EPHEMERIS_TYPE":0,"CLASSIFICATION_TYPE":"U","NORAD_CAT_ID":44506,"ELEMENT_SET_NO":999,"REV_AT_EPOCH":4068,"BSTAR":0,"MEAN_MOTION_DOT":-1.02e-6,"MEAN_MOTION_DDOT":0},{"OBJECT_NAME":"BEIDOU-3 M24","OBJECT_ID":"2019-061A","EPOCH":"2025-03-09T18:37:46.728192","MEAN_MOTION":1.8622899,"ECCENTRICITY":0.0008014,"INCLINATION":54.4189,"RA_OF_ASC_NODE":198.3909,"ARG_OF_PERICENTER":13.4837,"MEAN_ANOMALY":346.4909,"EPHEMERIS_TYPE":0,"CLASSIFICATION_TYPE":"U","NORAD_CAT_ID":44542,"ELEMENT_SET_NO":999,"REV_AT_EPOCH":3714,"BSTAR":0,"MEAN_MOTION_DOT":-3.3e-7,"MEAN_MOTION_DDOT":0},{"OBJECT_NAME":"BEIDOU-3 M23","OBJECT_ID":"2019-061B","EPOCH":"2025-03-09T08:04:05.959776","MEAN_MOTION":1.86229178,"ECCENTRICITY":0.0004651,"INCLINATION":54.4175,"RA_OF_ASC_NODE":198.3742,"ARG_OF_PERICENTER":7.2242,"MEAN_ANOMALY":330.3863,"EPHEMERIS_TYPE":0,"CLASSIFICATION_TYPE":"U","NORAD_CAT_ID":44543,"ELEMENT_SET_NO":999,"REV_AT_EPOCH":3713,"BSTAR":0,"MEAN_MOTION_DOT":-2.7e-7,"MEAN_MOTION_DDOT":0}]
